     2.100          NAVIGATION                              RINEX VERSION / TYPE
fic2rin                                 02/28/2018 00:12:00 PGM / RUN BY / DATE
                                                            END OF HEADER
14 18  2 27 18  0  0.0 -.945231877267D-04 -.454747350886D-12  .000000000000D+00
     .550000000000D+02  .290000000000D+02  .504949604606D-08 -.163253929635D+01
     .166520476341D-05  .939758040477D-02  .510923564434D-05  .515373055649D+04
     .237600000000D+06  .149011611938D-06  .104639295113D+01  .119209289551D-06
     .961046917496D+00  .278937500000D+03 -.195732876845D+01 -.821284209784D-08
     .369301097159D-09  .100000000000D+01  .199000000000D+04  .000000000000D+00
     .240000000000D+01  .000000000000D+00 -.977888703346D-08  .550000000000D+02
     .230406000000D+06  .400000000000D+01
16 18  2 27 18  0  0.0  .313641503453D-04 -.795807864051D-12  .000000000000D+00
     .160000000000D+02  .957812500000D+02  .367872466222D-08 -.366418586416D+00
     .500492751598D-05  .991630693898D-02  .109300017357D-04  .515359584618D+04
     .237600000000D+06  .968575477600D-07 -.313826747591D+01  .102445483208D-06
     .988148014731D+00  .182781250000D+03  .473375419381D+00 -.775496588260D-08
    -.500020827875D-10  .100000000000D+01  .199000000000D+04  .000000000000D+00
     .240000000000D+01  .000000000000D+00 -.107102096081D-07  .160000000000D+02
     .230406000000D+06  .400000000000D+01
17 18  2 27 18  0  0.0 -.119785778224D-03  .306954461848D-11  .000000000000D+00
     .590000000000D+02  .524375000000D+02  .436339603867D-08 -.140281198630D+01
     .296160578728D-05  .123482245253D-01  .151991844177D-05  .515376676178D+04
     .237600000000D+06  .124797224998D-06 -.212300183443D+01  .229105353355D-06
     .981958507816D+00  .363531250000D+03 -.178680196265D+01 -.838784938760D-08
     .143220251413D-09  .100000000000D+01  .199000000000D+04  .000000000000D+00
     .240000000000D+01  .000000000000D+00 -.111758708954D-07  .590000000000D+02
     .230406000000D+06  .400000000000D+01
19 18  2 27 18  0  0.0 -.454211141914D-03  .250111042988D-11  .000000000000D+00
     .110000000000D+03  .400000000000D+02  .444589947527D-08  .162589473999D+01
     .179372727871D-05  .972443807404D-02  .169314444065D-05  .515369957161D+04
     .237600000000D+06 -.167638063431D-06 -.207580632560D+01 -.199303030968D-06
     .979380670610D+00  .361937500000D+03  .112875278129D+01 -.845356641069D-08
     .771460705864D-10  .100000000000D+01  .199000000000D+04  .000000000000D+00
     .240000000000D+01  .000000000000D+00 -.153668224812D-07  .110000000000D+03
     .230406000000D+06  .400000000000D+01
20 18  2 27 18  0  0.0  .501943752170D-03  .909494701773D-12  .000000000000D+00
     .130000000000D+02 -.624375000000D+02  .483341561688D-08 -.247669620077D+01
    -.309757888317D-05  .441550987307D-02  .128261744976D-04  .515380046272D+04
     .237600000000D+06  .223517417908D-07 -.183228893385D+00  .856816768646D-07
     .928484243827D+00  .107750000000D+03  .179498135414D+01 -.806033574534D-08
     .441446959466D-09  .100000000000D+01  .199000000000D+04  .000000000000D+00
     .240000000000D+01  .000000000000D+00 -.838190317154D-08  .130000000000D+02
     .230406000000D+06  .400000000000D+01
21 18  2 27 18  0  0.0 -.425454694778D-03  .443378667114D-11  .000000000000D+00
     .600000000000D+02 -.137968750000D+03  .509414076284D-08  .105592244192D+01
    -.756978988647D-05  .244713288266D-01  .507570803165D-05  .515375948334D+04
     .237600000000D+06 -.271946191788D-06 -.117116985108D+01 -.417232513428D-06
     .942642994053D+00  .281656250000D+03 -.158801341260D+01 -.887822695665D-08
    -.388944772540D-09  .100000000000D+01  .199000000000D+04  .000000000000D+00
     .240000000000D+01  .000000000000D+00 -.102445483208D-07  .600000000000D+02
     .230406000000D+06  .400000000000D+01
22 18  2 27 18  0  0.0 -.306133180857D-03 -.129602995003D-10  .000000000000D+00
     .960000000000D+02 -.333125000000D+02  .500163690968D-08 -.194895253548D+01
    -.161863863468D-05  .731829670258D-02  .120028853416D-04  .515358570862D+04
     .237600000000D+06  .108033418655D-06 -.132966003756D+00  .931322574615D-07
     .925208830227D+00  .123750000000D+03 -.160386943599D+01 -.813248160764D-08
     .413231498465D-09  .100000000000D+01  .199000000000D+04  .000000000000D+00
     .240000000000D+01  .000000000000D+00 -.176951289177D-07  .960000000000D+02
     .230406000000D+06  .400000000000D+01
23 18  2 27 18  0  0.0 -.218817032874D-03  .113686837722D-12  .000000000000D+00
     .220000000000D+02  .343125000000D+02  .543986944954D-08 -.263052242302D+01
     .150501728058D-05  .120380432345D-01  .556558370590D-05  .515358090782D+04
     .237600000000D+06  .152736902237D-06  .956504264276D+00 -.229105353355D-06
     .943603968847D+00  .264718750000D+03 -.239213776127D+01 -.838892086080D-08
     .447875798682D-09  .100000000000D+01  .199000000000D+04  .000000000000D+00
     .240000000000D+01  .000000000000D+00 -.200234353542D-07  .220000000000D+02
     .230406000000D+06  .400000000000D+01
24 18  2 27 18  0  0.0 -.466182827950D-04 -.568434188608D-12  .000000000000D+00
     .260000000000D+02 -.364687500000D+02  .522593196676D-08  .305221522881D+01
    -.196695327759D-05  .684271182399D-02  .827200710773D-05  .515365146255D+04
     .237600000000D+06 -.633299350739D-07  .197757665186D+01 -.113621354103D-06
     .942152367902D+00  .209312500000D+03  .532985423657D+00 -.823391440416D-08
    -.682885587783D-09  .100000000000D+01  .199000000000D+04  .000000000000D+00
     .240000000000D+01  .000000000000D+00  .279396772385D-08  .260000000000D+02
     .230406000000D+06  .400000000000D+01
26 18  2 27 18  0  0.0 -.235361047089D-03  .135287336889D-10  .000000000000D+00
     .240000000000D+02  .795625000000D+02  .438803992233D-08  .578356539054D+00
     .420399010181D-05  .271192111541D-02  .114925205708D-04  .515361996460D+04
     .237600000000D+06  .521540641785D-07  .304708299327D+01  .745058059692D-08
     .956974516367D+00  .150781250000D+03  .376055058946D-01 -.795890294883D-08
    -.141791620476D-09  .100000000000D+01  .199000000000D+04  .000000000000D+00
     .240000000000D+01  .000000000000D+00  .745058059692D-08  .240000000000D+02
     .230406000000D+06  .400000000000D+01
27 18  2 27 18  0  0.0  .368393491954D-03  .102318153949D-11  .000000000000D+00
     .200000000000D+02  .632187500000D+02  .430553648573D-08 -.122817006363D+01
     .330060720444D-05  .557683221996D-02  .216625630856D-05  .515367778587D+04
     .237600000000D+06  .931322574615D-07 -.217656089500D+01 -.912696123123D-07
     .976770988604D+00  .346781250000D+03  .357644448504D+00 -.826570144250D-08
     .205365697163D-09  .100000000000D+01  .199000000000D+04  .000000000000D+00
     .240000000000D+01  .000000000000D+00  .186264514923D-08  .200000000000D+02
     .230406000000D+06  .400000000000D+01
28 18  2 27 18  0  0.0  .692593399435D-03  .341060513165D-11  .000000000000D+00
     .810000000000D+02  .986562500000D+02  .383658838073D-08 -.410760680848D+00
     .524520874023D-05  .196704197442D-01  .109169632196D-04  .515367842102D+04
     .237600000000D+06 -.247731804848D-06 -.313396056608D+01  .113621354103D-06
     .986998421520D+00  .189781250000D+03 -.152500543876D+01 -.803069165340D-08
     .721458623076D-10  .100000000000D+01  .199000000000D+04  .000000000000D+00
     .240000000000D+01  .000000000000D+00 -.111758708954D-07  .810000000000D+02
     .230406000000D+06  .400000000000D+01
29 18  2 27 18  0  0.0  .489961821586D-03 -.579802872380D-11  .000000000000D+00
     .860000000000D+02  .638437500000D+02  .434160941689D-08  .101904684876D+00
     .323727726936D-05  .539663364179D-03  .156089663506D-05  .515372923660D+04
     .237600000000D+06 -.353902578354D-07 -.211252101971D+01  .372529029846D-07
     .983190382854D+00  .360875000000D+03  .757659971190D+00 -.836713423901D-08
     .196436753808D-09  .100000000000D+01  .199000000000D+04  .000000000000D+00
     .340000000000D+01  .000000000000D+00 -.102445483208D-07  .860000000000D+02
     .230406000000D+06  .400000000000D+01
30 18  2 27 18  0  0.0  .996324233711D-04 -.352429196937D-11  .000000000000D+00
     .140000000000D+02 -.246562500000D+02  .516128641687D-08  .230665344677D+01
    -.122375786304D-05  .307153060567D-02  .874884426594D-05  .515376490211D+04
     .237600000000D+06 -.391155481339D-07  .207069759330D+01  .115483999252D-06
     .944784884597D+00  .205187500000D+03 -.313541452818D+01 -.827034449304D-08
    -.606096674931D-09  .100000000000D+01  .199000000000D+04  .000000000000D+00
     .240000000000D+01  .000000000000D+00  .372529029846D-08  .140000000000D+02
     .230406000000D+06  .400000000000D+01
31 18  2 27 18  0  0.0  .138831324875D-03 -.261479726760D-11  .000000000000D+00
     .190000000000D+02 -.373437500000D+02  .473555439771D-08  .191962785397D+01
    -.159628689289D-05  .880556716584D-02  .879727303982D-05  .515361111259D+04
     .237600000000D+06 -.558793544769D-08  .204793148514D+01  .113621354103D-06
     .963811917515D+00  .212625000000D+03 -.146552745699D+00 -.804390648956D-08
    -.778246702813D-09  .100000000000D+01  .199000000000D+04  .000000000000D+00
     .240000000000D+01  .000000000000D+00 -.135041773319D-07  .190000000000D+02
     .230406000000D+06  .400000000000D+01
32 18  2 27 18  0  0.0 -.530830118805D-03  .147792889038D-11  .000000000000D+00
     .840000000000D+02  .334687500000D+02  .515700052406D-08 -.495963191978D+00
     .176765024662D-05  .174399092793D-02  .579841434956D-05  .515362950134D+04
     .237600000000D+06 -.149011611938D-07  .961842736154D+00  .223517417908D-07
     .957170916045D+00  .266031250000D+03 -.267508177395D+01 -.831820362943D-08
     .415017287136D-09  .100000000000D+01  .199000000000D+04  .000000000000D+00
     .240000000000D+01  .000000000000D+00  .465661287308D-09  .840000000000D+02
     .230406000000D+06  .400000000000D+01
